{
  "countries": [ "DE", "FR", "ES", "AD", "CH", "AT", "PH", "FI" ],
  "sql_columns": ["amenity", "shop", "craft", "office", "emergency", "tobacco", "healthcare", "opening_hours", "opening_hours:covid19"],
  "categories": {
    "amenity": {
      "name": "Amenity",
      "subcategories": {
        "police": {
          "name": "Police",
          "osm_tags": [
            { "amenity": "police" }
          ],
          "areas": "all"
        },
        "post_office": {
          "name": "Post office",
          "osm_tags": [
            { "amenity": "post_office" },
            { "amenity": "vending_machine", "vending": "stamps|parcel_mail_in|parcel_pickup|parcel_pickup;parcel_mail_in" }
          ],
          "areas": "all"
        },
        "childcare": {
          "name": "Childcare",
          "osm_tags": [ { "amenity": "childcare" }, { "amenity": "kindergarten", "kindergarten:FR": "*" } ],
          "areas": [ "FR" ]
        },
        "employment_agency": {
          "name": "Employment agency",
          "osm_tags": [
            { "office": "employment_agency" }
          ],
          "areas": "all"
        },
        "funeral_directors": {
          "name": "Funeral directors",
          "osm_tags": [
            { "shop": "funeral_directors" }
          ],
          "areas": "all"
        },
        "bank": {
          "name": "Bank",
          "osm_tags": [
            { "amenity": "bank" },
            { "office": "financial" }
          ],
          "areas": "all"
        },
        "moneylender": {
          "name": "Moneylender",
          "osm_tags": [
            { "shop": "money_lender" }
          ],
          "-areas": [ "FR" ]
        },
        "insurance": {
          "name": "Insurance",
          "osm_tags": [
            { "office": "insurance" }
          ],
          "areas": "all"
        }
      }
    },
    "health": {
      "name": "Health",
      "subcategories": {
        "pharmacy": {
          "name": "Pharmacy",
          "osm_tags": [
            { "amenity": "pharmacy" }
          ],
          "areas": "all"
        },
        "covid19_centre": {
          "name": "Covid-19 consultation centre",
          "osm_tags": [ { "healthcare": "centre", "healthcare:speciality": "covid19" } ],
          "areas": [ "FR" ]
        },
        "optician": {
          "name": "Optician",
          "osm_tags": [
            { "shop": "optician" },
            { "craft": "optician" }
          ],
          "areas": "all"
        },
        "hearing_aids": {
          "name": "Hearing aids",
          "osm_tags": [
            { "shop": "hearing_aids" }
          ],
          "areas": "all"
        },
        "condoms": {
          "name": "Condoms vending machine",
          "osm_tags": [
            { "amenity": "vending_machine", "vending": "condoms" }
          ],
          "areas": "all"
        },
        "medical_supply": {
          "name": "Medical supplies",
          "osm_tags": [
            { "shop": "medical_supply" }
          ],
          "areas": "all"
        }
      }
    },
    "food": {
      "name": "Food",
      "subcategories": {
        "supermarket": {
          "name": "Supermarket",
          "osm_tags": [
            { "shop": "frozen_food|supermarket" }
          ],
          "areas": "all"
        },
        "butcher": {
          "name": "Butcher",
          "osm_tags": [
            { "shop": "butcher" }
          ],
          "areas": "all"
        },
        "cheese": {
          "name": "Cheese",
          "osm_tags": [
            { "shop": "cheese" }
          ],
          "areas": "all"
        },
        "convenience": {
          "name": "Convenience",
          "osm_tags": [
            { "shop": "convenience" }
          ],
          "areas": "all"
        },
        "seafood": {
          "name": "Seafood",
          "osm_tags": [
            { "shop": "seafood" }
          ],
          "areas": "all"
        },
        "greengrocer": {
          "name": "Greengrocer",
          "osm_tags": [
            { "shop": "greengrocer" }
          ],
          "areas": "all"
        },
        "grocery": {
          "name": "Grocery",
          "osm_tags": [
            { "shop": "deli|spices|honey|health_food|pasta|cannery" }
          ],
          "areas": "all"
        },
        "chocolate": {
          "name": "Chocolate",
          "osm_tags": [ { "shop": "chocolate" } ],
          "areas": "all"
        },
        "tea": {
          "name": "Tea",
          "osm_tags": [ { "shop": "tea" } ],
          "areas": "all"
        },
        "coffee": {
          "name": "Coffee",
          "osm_tags": [ { "shop": "coffee" } ],
          "areas": "all"
        },
        "dairy": {
          "name": "Dairy",
          "osm_tags": [
            { "shop": "dairy" },
            { "amenity": "vending_machine", "vending": "milk" }
          ],
          "areas": "all"
        },
        "confectionery": {
          "name": "Confectionery",
          "osm_tags": [ { "shop": "confectionery" } ],
          "areas": "all"
        },
        "farm": {
          "name": "Farm shop",
          "osm_tags": [ { "shop": "farm" } ],
          "areas": "all"
        },
        "marketplace": {
          "name": "Marketplace",
          "osm_tags": [
            { "amenity": "marketplace" }
          ],
          "areas": "all"
        },
        "bakery": {
          "name": "Bakery",
          "osm_tags": [
            { "shop": "bakery|pastry" },
            { "amenity": "vending_machine", "vending": "bread" }
          ],
          "areas": "all"
        }
      }
    },
    "eat": {
      "name": "Restaurant & take-away",
      "subcategories": {
        "vending_machine": {
          "name": "Vending machine",
          "osm_tags": [
            { "amenity": "vending_machine", "vending": "pizza|drinks|water|sweets" }
          ],
          "areas": "all"
        },
        "restaurant": {
          "name": "Restaurant",
          "osm_tags": [
            { "amenity": "restaurant" }
          ],
          "areas": "all"
        },
        "fast_food": {
          "name": "Fast food",
          "osm_tags": [
            { "amenity": "fast_food" }
          ],
          "areas": "all"
        },
        "ice_cream": {
          "name": "Ice cream",
          "osm_tags": [
            { "amenity": "ice_cream" },
            { "amenity": "cafe", "cuisine": "ice_cream" },
            { "shop": "ice_cream" }
          ],
          "areas": [ "DE", "AT", "CH" ]
        },
        "cafe": {
          "name": "Coffee shop",
          "osm_tags": [
            { "amenity": "cafe" },
            { "amenity": "vending_machine", "vending": "coffee" }
          ],
          "osm_filter_tags": [
            { "delivery": "yes|only" },
            { "takeaway": "yes|only" },
            { "delivery:covid19": "yes|only" },
            { "takeaway:covid19": "yes|only" }
          ],
          "areas": "all"
        },
        "bar": {
          "name": "Bar",
          "osm_tags": [ { "amenity": "bar|pub" } ],
          "osm_filter_tags": [
            { "delivery": "yes|only" },
            { "takeaway": "yes|only" },
            { "delivery:covid19": "yes|only" },
            { "takeaway:covid19": "yes|only" }
          ],
          "areas": "all"
        }
      }
    },
    "drugs": {
      "name": "Drugs",
      "subcategories": {
        "tobacco": {
          "name": "Tobacco",
          "osm_tags": [
            { "shop": "tobacco|newsagent;tobacco|tobacco;newsagent" },
            { "tobacco": "yes|only" },
            { "amenity": "vending_machine", "vending": "cigarettes" }
          ],
          "areas": "all"
        },
        "e_cigarette": {
          "name": "E-cigarette",
          "osm_tags": [
            { "shop": "e-cigarette" },
            { "amenity": "vending_machine", "vending": "e-cigarettes" }
          ],
          "areas": "all"
        },
        "alcohol": {
          "name": "Alcohol store",
          "osm_tags": [
            { "shop": "alcohol|beverages|wine" }
          ],
          "areas": "all"
        }
      }
    },
    "shop": {
      "name": "Shops",
      "subcategories": {
        "hardware": {
          "name": "Hardware",
          "osm_tags": [
            { "shop": "doityourself|hardware|paint|glaziery" }
          ],
          "areas": "all"
        },
        "mobile_phone": {
          "name": "Mobile phone",
          "osm_tags": [
            { "shop": "mobile_phone" }
          ],
          "areas": "all"
        },
        "computer": {
          "name": "Computer",
          "osm_tags": [ { "shop": "computer" } ],
          "areas": "all"
        },
        "electronics": {
          "name": "Electronics",
          "osm_tags": [
            { "shop": "electronics" },
            { "craft": "electronics_repair" }
          ],
          "areas": "all"
        },
        "laundry": {
          "name": "Laundry",
          "osm_tags": [
            { "shop": "dry_cleaning|laundry" }
          ],
          "areas": "all"
        },
        "stationery": {
          "name": "Stationery",
          "osm_tags": [
            { "shop": "stationery" }
          ],
          "areas": [ "FR" ]
        },
        "newsagent": {
          "name": "Newsagent",
          "osm_tags": [
            { "shop": "kiosk|newsagent" }
          ],
          "areas": "all"
        },
        "pet": {
          "name": "Pet store",
          "osm_tags": [
            { "shop": "pet" }
          ],
          "areas": "all"
        },
        "agrarian": {
          "name": "Agricultural products",
          "osm_tags": [
            { "shop": "agrarian" }
          ],
          "areas": [ "FR" ]
        },
        "flower": {
          "name": "Garden / flower",
          "osm_tags": [
            { "shop": "garden_centre|florist" }
          ],
          "areas": "all"
        },
        "chemist": {
          "name": "Chemist",
          "osm_tags": [
            { "shop": "chemist" }
          ],
          "-areas": [ "DE", "AT", "CH" ]
        },
        "fabric": {
          "name": "Fabric",
          "osm_tags": [ { "shop": "fabric" } ],
          "areas": [ "DE", "AT", "CH" ]
        },
        "books": {
          "name": "Book store",
          "osm_tags": [
            { "shop": "books" },
            { "amenity": "vending_machine", "vending": "books" },
            { "amenity": "public_bookcase" }
          ],
          "areas": [ "DE", "AT", "CH" ]
        }
      }
    },
    "chemist": {
      "name": "Chemist",
      "subcategories": {
        "chemist": {
          "name": "Chemist",
          "osm_tags": [
            { "shop": "chemist" }
          ],
          "areas": [ "DE", "AT", "CH" ]
        }
      }
    },
    "mobility": {
      "name": "Mobility",
      "subcategories": {
        "fuel": {
          "name": "Fuel station",
          "osm_tags": [
            { "amenity": "fuel" },
            { "shop": "gas" }
          ],
          "areas": "all"
        },
        "car_rental": {
          "name": "Car rental",
          "osm_tags": [
            { "amenity": "car_rental" }
          ],
          "areas": "all"
        },
        "bicycle": {
          "name": "Bicycle shop",
          "osm_tags": [
            { "shop": "bicycle" }
          ],
          "areas": "all"
        },
        "car": {
          "name": "Garage",
          "osm_tags": [
            { "shop": "car_parts|car_repair" }
          ],
          "areas": "all"
        },
        "bicycle_tube": {
          "name": "Bicycle tube vending machine",
          "osm_tags": [ { "amenity": "vending_machine", "vending": "bicycle_tube" } ],
          "areas": "all"
        },
        "public_transport_tickets": {
          "name": "Public transport ticket machine",
          "osm_tags": [ { "amenity": "vending_machine", "vending": "public_transport_tickets" } ],
          "areas": "all"
        }
      }
    }
  }
}
